0 MIDSTAR 1
1 30773U 07006B   13282.44758256  .00006429  00000-0  22039-3 0  8663
2 30773 046.0684 215.1947 0007337 088.5261 017.0435 15.31099291367397
0 MIDSTAR 1
1 30773U 07006B   13284.07413319  .00006237  00000-0  21403-3 0  8674
2 30773 046.0686 206.4364 0007323 099.2687 340.6969 15.31115245367644
0 MIDSTAR 1
1 30773U 07006B   13286.29286005  .00004840  00000-0  16839-3 0  8697
2 30773 046.0694 194.4888 0007432 113.6561 328.1692 15.31141039367984
0 MIDSTAR 1
1 30773U 07006B   13287.34023272  .00005134  00000-0  17789-3 0  8703
2 30773 046.0695 188.8491 0007499 119.9917 340.7958 15.31151530368140
0 MIDSTAR 1
1 30773U 07006B   13289.11053240  .00006369  00000-0  21794-3 0  8711
2 30773 046.0691 179.3167 0007663 130.4393 018.2258 15.31174130368411
0 MIDSTAR 1
1 30773U 07006B   13290.27502064  .00005864  00000-0  20145-3 0  8722
2 30773 046.0683 173.0462 0007767 137.1849 316.7790 15.31185721368590
0 MIDSTAR 1
1 30773U 07006B   13292.10844826  .00004868  00000-0  16896-3 0  8733
2 30773 046.0675 163.1724 0007943 147.2946 343.0821 15.31204101368871
0 MIDSTAR 1
1 30773U 07006B   13293.21093875  .00005153  00000-0  17815-3 0  8747
2 30773 046.0673 157.2351 0008055 153.3516 300.3568 15.31213854369044
0 MIDSTAR 1
1 30773U 07006B   13294.98273531  .00006105  00000-0  20898-3 0  8755
2 30773 046.0671 147.6932 0008236 163.6732 346.5566 15.31228348369320
0 MIDSTAR 1
1 30773U 07006B   13296.09055791  .00006600  00000-0  22495-3 0  8761
2 30773 046.0673 141.7266 0008341 170.2219 332.8646 15.31240875369481
